start=new Date('2023-05-30T00:00:00.000Z').valueOf();
sats=[{"SEMIMAJOR_AXIS":"6937.180","ARG_OF_PERICENTER":"270.2270","EPOCH":"2023-05-29T18:43:12.534816","GP_ID":"232783706","MEAN_MOTION":"15.02547721","ECCENTRICITY":"0.00015610","BSTAR":"0.00029345000000","LAUNCH_DATE":"2022-12-28","EPHEMERIS_TYPE":"0","FILE":"3920354","OBJECT_TYPE":"PAYLOAD","INCLINATION":"43.0031","OBJECT_NAME":"STARLINK-5385","MEAN_MOTION_DOT":"0.00003764","TLE_LINE2":"2 54821  43.0031 248.3166 0001561 270.2270  89.8393 15.02547721 24286","REV_AT_EPOCH":"2428","APOAPSIS":"560.128","MEAN_MOTION_DDOT":"0.0000000000000","RCS_SIZE":"LARGE","SITE":"AFETR","TIME_SYSTEM":"UTC","MEAN_ELEMENT_THEORY":"SGP4","REF_FRAME":"TEME","PERIOD":"95.837","CLASSIFICATION_TYPE":"U","CENTER_NAME":"EARTH","RA_OF_ASC_NODE":"248.3166","OBJECT_ID":"2022-177B","DECAY_DATE":null,"MEAN_ANOMALY":"89.8393","PERIAPSIS":"557.963","ELEMENT_SET_NO":"999","NORAD_CAT_ID":"54821","COUNTRY_CODE":"US","TLE_LINE1":"1 54821U 22177B   23149.78000619  .00003764  00000-0  29345-3 0  9995"},{"GP_ID":"232781966","MEAN_MOTION":"15.02549772","EPOCH":"2023-05-29T18:20:49.864992","SEMIMAJOR_AXIS":"6937.174","ARG_OF_PERICENTER":"268.9808","ECCENTRICITY":"0.00016080","BSTAR":"0.00035611000000","INCLINATION":"43.0027","OBJECT_TYPE":"PAYLOAD","FILE":"3920354","LAUNCH_DATE":"2022-12-28","EPHEMERIS_TYPE":"0","REV_AT_EPOCH":"2428","APOAPSIS":"560.155","MEAN_MOTION_DDOT":"0.0000000000000","MEAN_MOTION_DOT":"0.00004612","TLE_LINE2":"2 54822  43.0027 248.1991 0001608 268.9808  91.0850 15.02549772 24280","OBJECT_NAME":"STARLINK-5101","REF_FRAME":"TEME","PERIOD":"95.837","SITE":"AFETR","MEAN_ELEMENT_THEORY":"SGP4","TIME_SYSTEM":"UTC","RCS_SIZE":"LARGE","OBJECT_ID":"2022-177C","DECAY_DATE":null,"RA_OF_ASC_NODE":"248.1991","CLASSIFICATION_TYPE":"U","CENTER_NAME":"EARTH","NORAD_CAT_ID":"54822","ELEMENT_SET_NO":"999","PERIAPSIS":"557.924","MEAN_ANOMALY":"91.0850","COUNTRY_CODE":"US","TLE_LINE1":"1 54822U 22177C   23149.76446603  .00004612  00000-0  35611-3 0  9997"},{"REF_FRAME":"TEME","PERIOD":"95.837","SITE":"AFETR","MEAN_ELEMENT_THEORY":"SGP4","TIME_SYSTEM":"UTC","RCS_SIZE":"LARGE","OBJECT_ID":"2022-177D","DECAY_DATE":null,"RA_OF_ASC_NODE":"248.3104","CLASSIFICATION_TYPE":"U","CENTER_NAME":"EARTH","NORAD_CAT_ID":"54823","ELEMENT_SET_NO":"999","PERIAPSIS":"557.941","MEAN_ANOMALY":"93.0070","TLE_LINE1":"1 54823U 22177D   23149.77889576  .00004359  00000-0  33749-3 0  9997","COUNTRY_CODE":"US","GP_ID":"232782716","MEAN_MOTION":"15.02547580","EPOCH":"2023-05-29T18:41:36.593664","ARG_OF_PERICENTER":"267.0590","SEMIMAJOR_AXIS":"6937.181","ECCENTRICITY":"0.00015930","BSTAR":"0.00033749000000","INCLINATION":"43.0030","OBJECT_TYPE":"PAYLOAD","FILE":"3920354","LAUNCH_DATE":"2022-12-28","EPHEMERIS_TYPE":"0","APOAPSIS":"560.151","REV_AT_EPOCH":"2428","MEAN_MOTION_DDOT":"0.0000000000000","MEAN_MOTION_DOT":"0.00004359","TLE_LINE2":"2 54823  43.0030 248.3104 0001593 267.0590  93.0070 15.02547580 24285","OBJECT_NAME":"STARLINK-5106"},{"INCLINATION":"43.0033","OBJECT_TYPE":"PAYLOAD","FILE":"3920354","LAUNCH_DATE":"2022-12-28","EPHEMERIS_TYPE":"0","MEAN_MOTION_DDOT":"0.0000000000000","APOAPSIS":"560.162","REV_AT_EPOCH":"2427","MEAN_MOTION_DOT":"0.00003802","TLE_LINE2":"2 54824  43.0033 248.6472 0001612 270.1695  89.8963 15.02548435 24276","OBJECT_NAME":"STARLINK-4643","GP_ID":"232782968","MEAN_MOTION":"15.02548435","EPOCH":"2023-05-29T17:01:05.153952","ARG_OF_PERICENTER":"270.1695","SEMIMAJOR_AXIS":"6937.178","BSTAR":"0.00029629000000","ECCENTRICITY":"0.00016120","NORAD_CAT_ID":"54824","ELEMENT_SET_NO":"999","PERIAPSIS":"557.925","MEAN_ANOMALY":"89.8963","TLE_LINE1":"1 54824U 22177E   23149.70908743  .00003802  00000-0  29629-3 0  9993","COUNTRY_CODE":"US","REF_FRAME":"TEME","PERIOD":"95.837","SITE":"AFETR","MEAN_ELEMENT_THEORY":"SGP4","TIME_SYSTEM":"UTC","RCS_SIZE":"LARGE","OBJECT_ID":"2022-177E","DECAY_DATE":null,"RA_OF_ASC_NODE":"248.6472","CENTER_NAME":"EARTH","CLASSIFICATION_TYPE":"U"},{"RA_OF_ASC_NODE":"248.2336","CLASSIFICATION_TYPE":"U","CENTER_NAME":"EARTH","OBJECT_ID":"2022-177F","DECAY_DATE":null,"RCS_SIZE":"LARGE","REF_FRAME":"TEME","PERIOD":"95.838","SITE":"AFETR","TIME_SYSTEM":"UTC","MEAN_ELEMENT_THEORY":"SGP4","COUNTRY_CODE":"US","TLE_LINE1":"1 54825U 22177F   23149.76891376 -.00000234  00000-0 -22696-5 0  9990","PERIAPSIS":"558.128","MEAN_ANOMALY":"82.7583","NORAD_CAT_ID":"54825","ELEMENT_SET_NO":"999","ECCENTRICITY":"0.00013810","BSTAR":"-0.00000226960000","EPOCH":"2023-05-29T18:27:14.148864","ARG_OF_PERICENTER":"277.3103","SEMIMAJOR_AXIS":"6937.221","GP_ID":"232783207","MEAN_MOTION":"15.02534662","OBJECT_NAME":"STARLINK-4801","APOAPSIS":"560.044","REV_AT_EPOCH":"2428","MEAN_MOTION_DDOT":"0.0000000000000","MEAN_MOTION_DOT":"-0.00000234","TLE_LINE2":"2 54825  43.0042 248.2336 0001381 277.3103  82.7583 15.02534662 24286","FILE":"3920354","LAUNCH_DATE":"2022-12-28","EPHEMERIS_TYPE":"0","INCLINATION":"43.0042","OBJECT_TYPE":"PAYLOAD"},{"RCS_SIZE":"LARGE","PERIOD":"95.837","REF_FRAME":"TEME","TIME_SYSTEM":"UTC","MEAN_ELEMENT_THEORY":"SGP4","SITE":"AFETR","RA_OF_ASC_NODE":"248.2160","CLASSIFICATION_TYPE":"U","CENTER_NAME":"EARTH","DECAY_DATE":null,"OBJECT_ID":"2022-177G","PERIAPSIS":"557.988","MEAN_ANOMALY":"89.4884","NORAD_CAT_ID":"54826","ELEMENT_SET_NO":"999","TLE_LINE1":"1 54826U 22177G   23149.76668630  .00002193  00000-0  17734-3 0  9995","COUNTRY_CODE":"US","EPOCH":"2023-05-29T18:24:01.696320","ARG_OF_PERICENTER":"270.5783","SEMIMAJOR_AXIS":"6937.183","MEAN_MOTION":"15.02546747","GP_ID":"232782466","BSTAR":"0.00017734000000","ECCENTRICITY":"0.00015280","FILE":"3920354","EPHEMERIS_TYPE":"0","LAUNCH_DATE":"2022-12-28","OBJECT_TYPE":"PAYLOAD","INCLINATION":"43.0031","OBJECT_NAME":"STARLINK-5107","APOAPSIS":"560.108","MEAN_MOTION_DDOT":"0.0000000000000","REV_AT_EPOCH":"2428","TLE_LINE2":"2 54826  43.0031 248.2160 0001528 270.5783  89.4884 15.02546747 24287","MEAN_MOTION_DOT":"0.00002193"},{"COUNTRY_CODE":"US","TLE_LINE1":"1 54827U 22177H   23149.75891948  .00002990  00000-0  23627-3 0  9998","NORAD_CAT_ID":"54827","ELEMENT_SET_NO":"999","PERIAPSIS":"557.913","MEAN_ANOMALY":"89.9637","DECAY_DATE":null,"OBJECT_ID":"2022-177H","RA_OF_ASC_NODE":"248.1579","CENTER_NAME":"EARTH","CLASSIFICATION_TYPE":"U","PERIOD":"95.837","REF_FRAME":"TEME","MEAN_ELEMENT_THEORY":"SGP4","TIME_SYSTEM":"UTC","SITE":"AFETR","RCS_SIZE":"LARGE","MEAN_MOTION_DDOT":"0.0000000000000","APOAPSIS":"560.193","REV_AT_EPOCH":"2429","TLE_LINE2":"2 54827  43.0031 248.1579 0001643 270.1017  89.9637 15.02545289 24297","MEAN_MOTION_DOT":"0.00002990","OBJECT_NAME":"STARLINK-5383","OBJECT_TYPE":"PAYLOAD","INCLINATION":"43.0031","FILE":"3920354","EPHEMERIS_TYPE":"0","LAUNCH_DATE":"2022-12-28","BSTAR":"0.00023627000000","ECCENTRICITY":"0.00016430","MEAN_MOTION":"15.02545289","GP_ID":"232782217","EPOCH":"2023-05-29T18:12:50.643072","SEMIMAJOR_AXIS":"6937.188","ARG_OF_PERICENTER":"270.1017"},{"RA_OF_ASC_NODE":"248.1317","CENTER_NAME":"EARTH","CLASSIFICATION_TYPE":"U","OBJECT_ID":"2022-177J","DECAY_DATE":null,"RCS_SIZE":"LARGE","REF_FRAME":"TEME","PERIOD":"95.837","SITE":"AFETR","MEAN_ELEMENT_THEORY":"SGP4","TIME_SYSTEM":"UTC","TLE_LINE1":"1 54828U 22177J   23149.75558565  .00002906  00000-0  23007-3 0  9993","COUNTRY_CODE":"US","PERIAPSIS":"557.961","MEAN_ANOMALY":"87.5992","NORAD_CAT_ID":"54828","ELEMENT_SET_NO":"999","ECCENTRICITY":"0.00015660","BSTAR":"0.00023007000000","EPOCH":"2023-05-29T18:08:02.600160","ARG_OF_PERICENTER":"272.4671","SEMIMAJOR_AXIS":"6937.183","GP_ID":"232783468","MEAN_MOTION":"15.02546967","OBJECT_NAME":"STARLINK-5381","APOAPSIS":"560.134","REV_AT_EPOCH":"2428","MEAN_MOTION_DDOT":"0.0000000000000","MEAN_MOTION_DOT":"0.00002906","TLE_LINE2":"2 54828  43.0029 248.1317 0001566 272.4671  87.5992 15.02546967 24281","FILE":"3920354","LAUNCH_DATE":"2022-12-28","EPHEMERIS_TYPE":"0","INCLINATION":"43.0029","OBJECT_TYPE":"PAYLOAD"},{"OBJECT_ID":"2022-177K","DECAY_DATE":null,"CLASSIFICATION_TYPE":"U","CENTER_NAME":"EARTH","RA_OF_ASC_NODE":"248.2684","SITE":"AFETR","MEAN_ELEMENT_THEORY":"SGP4","TIME_SYSTEM":"UTC","REF_FRAME":"TEME","PERIOD":"95.837","RCS_SIZE":"LARGE","TLE_LINE1":"1 54829U 22177K   23149.77334410  .00004686  00000-0  36159-3 0  9996","COUNTRY_CODE":"US","ELEMENT_SET_NO":"999","NORAD_CAT_ID":"54829","MEAN_ANOMALY":"87.9664","PERIAPSIS":"557.901","ECCENTRICITY":"0.00016350","BSTAR":"0.00036159000000","GP_ID":"232783707","MEAN_MOTION":"15.02550986","SEMIMAJOR_AXIS":"6937.170","ARG_OF_PERICENTER":"272.0991","EPOCH":"2023-05-29T18:33:36.930240","MEAN_MOTION_DOT":"0.00004686","TLE_LINE2":"2 54829  43.0030 248.2684 0001635 272.0991  87.9664 15.02550986 24286","REV_AT_EPOCH":"2428","APOAPSIS":"560.170","MEAN_MOTION_DDOT":"0.0000000000000","OBJECT_NAME":"STARLINK-5380","OBJECT_TYPE":"PAYLOAD","INCLINATION":"43.0030","LAUNCH_DATE":"2022-12-28","EPHEMERIS_TYPE":"0","FILE":"3920354"},{"ECCENTRICITY":"0.00015960","BSTAR":"0.00016882000000","EPOCH":"2023-05-29T18:00:03.333312","ARG_OF_PERICENTER":"271.2844","SEMIMAJOR_AXIS":"6937.194","GP_ID":"232781967","MEAN_MOTION":"15.02543323","OBJECT_NAME":"STARLINK-5394","REV_AT_EPOCH":"2428","APOAPSIS":"560.166","MEAN_MOTION_DDOT":"0.0000000000000","MEAN_MOTION_DOT":"0.00002078","TLE_LINE2":"2 54830  43.0031 248.0900 0001596 271.2844  88.7815 15.02543323 24286","FILE":"3920354","LAUNCH_DATE":"2022-12-28","EPHEMERIS_TYPE":"0","INCLINATION":"43.0031","OBJECT_TYPE":"PAYLOAD","RA_OF_ASC_NODE":"248.0900","CLASSIFICATION_TYPE":"U","CENTER_NAME":"EARTH","OBJECT_ID":"2022-177L","DECAY_DATE":null,"RCS_SIZE":"LARGE","REF_FRAME":"TEME","PERIOD":"95.838","SITE":"AFETR","MEAN_ELEMENT_THEORY":"SGP4","TIME_SYSTEM":"UTC","TLE_LINE1":"1 54830U 22177L   23149.75003858  .00002078  00000-0  16882-3 0  9999","COUNTRY_CODE":"US","PERIAPSIS":"557.952","MEAN_ANOMALY":"88.7815","NORAD_CAT_ID":"54830","ELEMENT_SET_NO":"999"}];
